[
  {
    "OBJECT_NAME": "STARLINK-5278",
    "OBJECT_ID": "22141H",
    "EPOCH": "2025-11-10T01:16:54.407136",
    "MEAN_MOTION": 15.08836119,
    "ECCENTRICITY": 0.000149,
    "INCLINATION": 53.2157,
    "RA_OF_ASC_NODE": 181.3964,
    "ARG_OF_PERICENTER": 91.4375,
    "MEAN_ANOMALY": 268.6788,
    "EPHEMERIS_TYPE": 0,
    "CLASSIFICATION_TYPE": "U",
    "NORAD_CAT_ID": 54164,
    "ELEMENT_SET_NO": 999,
    "REV_AT_EPOCH": 16779,
    "BSTAR": 1.2657e-06,
    "MEAN_MOTION_DOT": -2.68e-06,
    "MEAN_MOTION_DDOT": 0.0,
    "TLE_LINE1": "1 54164U 22141H   25314.05340749 -.00000268  00000+0  12657-5 0  9999",
    "TLE_LINE2": "2 54164  53.2157 181.3964 0001490  91.4375 268.6788 15.08836119167797",
    "COMMENT": "Grouped by shell and plane from TLE"
  },
  {
    "OBJECT_NAME": "STARLINK-5279",
    "OBJECT_ID": "22141J",
    "EPOCH": "2025-11-11T00:39:50.200704",
    "MEAN_MOTION": 15.08840412,
    "ECCENTRICITY": 0.0001245,
    "INCLINATION": 53.2166,
    "RA_OF_ASC_NODE": 186.7929,
    "ARG_OF_PERICENTER": 87.8397,
    "MEAN_ANOMALY": 272.2737,
    "EPHEMERIS_TYPE": 0,
    "CLASSIFICATION_TYPE": "U",
    "NORAD_CAT_ID": 54165,
    "ELEMENT_SET_NO": 999,
    "REV_AT_EPOCH": 16780,
    "BSTAR": 0.0,
    "MEAN_MOTION_DOT": -1.362e-05,
    "MEAN_MOTION_DDOT": 0.0,
    "TLE_LINE1": "1 54165U 22141J   25315.02766436 -.00001362  00000+0 -67530-4 0  9999",
    "TLE_LINE2": "2 54165  53.2166 186.7929 0001245  87.8397 272.2737 15.08840412167807",
    "COMMENT": "Grouped by shell and plane from TLE"
  },
  {
    "OBJECT_NAME": "STARLINK-5243",
    "OBJECT_ID": "22141L",
    "EPOCH": "2025-11-11T01:48:40.759200",
    "MEAN_MOTION": 15.08844176,
    "ECCENTRICITY": 0.0001668,
    "INCLINATION": 53.2155,
    "RA_OF_ASC_NODE": 186.3808,
    "ARG_OF_PERICENTER": 85.1892,
    "MEAN_ANOMALY": 274.9291,
    "EPHEMERIS_TYPE": 0,
    "CLASSIFICATION_TYPE": "U",
    "NORAD_CAT_ID": 54167,
    "ELEMENT_SET_NO": 999,
    "REV_AT_EPOCH": 16781,
    "BSTAR": 9.959400000000001e-05,
    "MEAN_MOTION_DOT": 1.298e-05,
    "MEAN_MOTION_DDOT": 0.0,
    "TLE_LINE1": "1 54167U 22141L   25315.07547175  .00001298  00000+0  99594-4 0  9994",
    "TLE_LINE2": "2 54167  53.2155 186.3808 0001668  85.1892 274.9291 15.08844176167815",
    "COMMENT": "Grouped by shell and plane from TLE"
  },
  {
    "OBJECT_NAME": "STARLINK-5413",
    "OBJECT_ID": "22175BC",
    "EPOCH": "2025-11-10T22:53:52.645056",
    "MEAN_MOTION": 15.08836517,
    "ECCENTRICITY": 0.0001544,
    "INCLINATION": 53.2153,
    "RA_OF_ASC_NODE": 187.3155,
    "ARG_OF_PERICENTER": 95.8771,
    "MEAN_ANOMALY": 264.2397,
    "EPHEMERIS_TYPE": 0,
    "CLASSIFICATION_TYPE": "U",
    "NORAD_CAT_ID": 54808,
    "ELEMENT_SET_NO": 999,
    "REV_AT_EPOCH": 16241,
    "BSTAR": 2.9226000000000004e-05,
    "MEAN_MOTION_DOT": 1.77e-06,
    "MEAN_MOTION_DDOT": 0.0,
    "TLE_LINE1": "1 54808U 22175BC  25314.95408154  .00000177  00000+0  29226-4 0  9992",
    "TLE_LINE2": "2 54808  53.2153 187.3155 0001544  95.8771 264.2397 15.08836517162418",
    "COMMENT": "Grouped by shell and plane from TLE"
  },
  {
    "OBJECT_NAME": "STARLINK-5592",
    "OBJECT_ID": "23028A",
    "EPOCH": "2025-11-11T02:23:35.388960",
    "MEAN_MOTION": 14.98303224,
    "ECCENTRICITY": 0.0003316,
    "INCLINATION": 69.9997,
    "RA_OF_ASC_NODE": 183.579,
    "ARG_OF_PERICENTER": 268.3609,
    "MEAN_ANOMALY": 91.717,
    "EPHEMERIS_TYPE": 0,
    "CLASSIFICATION_TYPE": "U",
    "NORAD_CAT_ID": 55741,
    "ELEMENT_SET_NO": 999,
    "REV_AT_EPOCH": 14846,
    "BSTAR": 0.0007025900000000001,
    "MEAN_MOTION_DOT": 8.294e-05,
    "MEAN_MOTION_DDOT": 0.0,
    "TLE_LINE1": "1 55741U 23028A   25315.09971515  .00008294  00000+0  70259-3 0  9998",
    "TLE_LINE2": "2 55741  69.9997 183.5790 0003316 268.3609  91.7170 14.98303224148467",
    "COMMENT": "Grouped by shell and plane from TLE"
  },
  {
    "OBJECT_NAME": "STARLINK-5594",
    "OBJECT_ID": "23028B",
    "EPOCH": "2025-11-11T00:53:26.319552",
    "MEAN_MOTION": 14.98335111,
    "ECCENTRICITY": 0.0002875,
    "INCLINATION": 69.9987,
    "RA_OF_ASC_NODE": 183.7628,
    "ARG_OF_PERICENTER": 270.3237,
    "MEAN_ANOMALY": 89.7592,
    "EPHEMERIS_TYPE": 0,
    "CLASSIFICATION_TYPE": "U",
    "NORAD_CAT_ID": 55742,
    "ELEMENT_SET_NO": 999,
    "REV_AT_EPOCH": 14826,
    "BSTAR": 6.6166e-05,
    "MEAN_MOTION_DOT": 6.97e-06,
    "MEAN_MOTION_DDOT": 0.0,
    "TLE_LINE1": "1 55742U 23028B   25315.03711018  .00000697  00000+0  66166-4 0  9995",
    "TLE_LINE2": "2 55742  69.9987 183.7628 0002875 270.3237  89.7592 14.98335111148261",
    "COMMENT": "Grouped by shell and plane from TLE"
  },
  {
    "OBJECT_NAME": "STARLINK-5602",
    "OBJECT_ID": "23028C",
    "EPOCH": "2025-11-11T00:59:27.219264",
    "MEAN_MOTION": 14.98334307,
    "ECCENTRICITY": 0.0002893,
    "INCLINATION": 69.998,
    "RA_OF_ASC_NODE": 183.7785,
    "ARG_OF_PERICENTER": 271.3129,
    "MEAN_ANOMALY": 88.7698,
    "EPHEMERIS_TYPE": 0,
    "CLASSIFICATION_TYPE": "U",
    "NORAD_CAT_ID": 55743,
    "ELEMENT_SET_NO": 999,
    "REV_AT_EPOCH": 14826,
    "BSTAR": 0.00010939000000000001,
    "MEAN_MOTION_DOT": 1.213e-05,
    "MEAN_MOTION_DDOT": 0.0,
    "TLE_LINE1": "1 55743U 23028C   25315.04128726  .00001213  00000+0  10939-3 0  9996",
    "TLE_LINE2": "2 55743  69.9980 183.7785 0002893 271.3129  88.7698 14.98334307148262",
    "COMMENT": "Grouped by shell and plane from TLE"
  },
  {
    "OBJECT_NAME": "STARLINK-5601",
    "OBJECT_ID": "23028D",
    "EPOCH": "2025-11-11T02:29:48.569568",
    "MEAN_MOTION": 14.98335154,
    "ECCENTRICITY": 0.0002767,
    "INCLINATION": 69.998,
    "RA_OF_ASC_NODE": 183.5951,
    "ARG_OF_PERICENTER": 270.5856,
    "MEAN_ANOMALY": 89.4986,
    "EPHEMERIS_TYPE": 0,
    "CLASSIFICATION_TYPE": "U",
    "NORAD_CAT_ID": 55744,
    "ELEMENT_SET_NO": 999,
    "REV_AT_EPOCH": 14827,
    "BSTAR": 7.6031e-05,
    "MEAN_MOTION_DOT": 8.14e-06,
    "MEAN_MOTION_DDOT": 0.0,
    "TLE_LINE1": "1 55744U 23028D   25315.10403437  .00000814  00000+0  76031-4 0  9991",
    "TLE_LINE2": "2 55744  69.9980 183.5951 0002767 270.5856  89.4986 14.98335154148274",
    "COMMENT": "Grouped by shell and plane from TLE"
  },
  {
    "OBJECT_NAME": "STARLINK-5579",
    "OBJECT_ID": "23028F",
    "EPOCH": "2025-11-11T01:47:31.850016",
    "MEAN_MOTION": 14.98315319,
    "ECCENTRICITY": 0.0002734,
    "INCLINATION": 70.0,
    "RA_OF_ASC_NODE": 183.4916,
    "ARG_OF_PERICENTER": 291.8321,
    "MEAN_ANOMALY": 68.2547,
    "EPHEMERIS_TYPE": 0,
    "CLASSIFICATION_TYPE": "U",
    "NORAD_CAT_ID": 55746,
    "ELEMENT_SET_NO": 999,
    "REV_AT_EPOCH": 14827,
    "BSTAR": 0.0,
    "MEAN_MOTION_DOT": -1.543e-05,
    "MEAN_MOTION_DDOT": 0.0,
    "TLE_LINE1": "1 55746U 23028F   25315.07467419 -.00001543  00000+0 -12163-3 0  9996",
    "TLE_LINE2": "2 55746  70.0000 183.4916 0002734 291.8321  68.2547 14.98315319148278",
    "COMMENT": "Grouped by shell and plane from TLE"
  },
  {
    "OBJECT_NAME": "STARLINK-5539",
    "OBJECT_ID": "23028G",
    "EPOCH": "2025-11-11T02:11:33.035712",
    "MEAN_MOTION": 14.98327288,
    "ECCENTRICITY": 0.0003695,
    "INCLINATION": 70.0011,
    "RA_OF_ASC_NODE": 183.549,
    "ARG_OF_PERICENTER": 266.5551,
    "MEAN_ANOMALY": 93.5186,
    "EPHEMERIS_TYPE": 0,
    "CLASSIFICATION_TYPE": "U",
    "NORAD_CAT_ID": 55747,
    "ELEMENT_SET_NO": 999,
    "REV_AT_EPOCH": 14827,
    "BSTAR": 8.873600000000001e-05,
    "MEAN_MOTION_DOT": 9.66e-06,
    "MEAN_MOTION_DDOT": 0.0,
    "TLE_LINE1": "1 55747U 23028G   25315.09135458  .00000966  00000+0  88736-4 0  9990",
    "TLE_LINE2": "2 55747  70.0011 183.5490 0003695 266.5551  93.5186 14.98327288148278",
    "COMMENT": "Grouped by shell and plane from TLE"
  },
  {
    "OBJECT_NAME": "STARLINK-5580",
    "OBJECT_ID": "23028H",
    "EPOCH": "2025-11-11T00:29:23.754912",
    "MEAN_MOTION": 14.98332693,
    "ECCENTRICITY": 0.0002702,
    "INCLINATION": 69.999,
    "RA_OF_ASC_NODE": 183.7026,
    "ARG_OF_PERICENTER": 257.3988,
    "MEAN_ANOMALY": 102.6869,
    "EPHEMERIS_TYPE": 0,
    "CLASSIFICATION_TYPE": "U",
    "NORAD_CAT_ID": 55748,
    "ELEMENT_SET_NO": 999,
    "REV_AT_EPOCH": 14826,
    "BSTAR": 5.9035000000000007e-05,
    "MEAN_MOTION_DOT": 6.12e-06,
    "MEAN_MOTION_DDOT": 0.0,
    "TLE_LINE1": "1 55748U 23028H   25315.02041383  .00000612  00000+0  59035-4 0  9995",
    "TLE_LINE2": "2 55748  69.9990 183.7026 0002702 257.3988 102.6869 14.98332693148264",
    "COMMENT": "Grouped by shell and plane from TLE"
  },
  {
    "OBJECT_NAME": "STARLINK-5573",
    "OBJECT_ID": "23028K",
    "EPOCH": "2025-11-11T01:59:31.408224",
    "MEAN_MOTION": 14.98324568,
    "ECCENTRICITY": 0.0002679,
    "INCLINATION": 69.9941,
    "RA_OF_ASC_NODE": 183.5223,
    "ARG_OF_PERICENTER": 285.2415,
    "MEAN_ANOMALY": 74.8447,
    "EPHEMERIS_TYPE": 0,
    "CLASSIFICATION_TYPE": "U",
    "NORAD_CAT_ID": 55750,
    "ELEMENT_SET_NO": 999,
    "REV_AT_EPOCH": 14827,
    "BSTAR": 0.0,
    "MEAN_MOTION_DOT": -2.508e-05,
    "MEAN_MOTION_DDOT": 0.0,
    "TLE_LINE1": "1 55750U 23028K   25315.08300241 -.00002508  00000+0 -20248-3 0  9996",
    "TLE_LINE2": "2 55750  69.9941 183.5223 0002679 285.2415  74.8447 14.98324568148273",
    "COMMENT": "Grouped by shell and plane from TLE"
  },
  {
    "OBJECT_NAME": "STARLINK-5577",
    "OBJECT_ID": "23028L",
    "EPOCH": "2025-11-11T02:17:31.956000",
    "MEAN_MOTION": 14.98357543,
    "ECCENTRICITY": 0.0002546,
    "INCLINATION": 69.9993,
    "RA_OF_ASC_NODE": 183.5641,
    "ARG_OF_PERICENTER": 268.3657,
    "MEAN_ANOMALY": 91.7211,
    "EPHEMERIS_TYPE": 0,
    "CLASSIFICATION_TYPE": "U",
    "NORAD_CAT_ID": 55751,
    "ELEMENT_SET_NO": 999,
    "REV_AT_EPOCH": 14827,
    "BSTAR": 0.00051808,
    "MEAN_MOTION_DOT": 6.098e-05,
    "MEAN_MOTION_DDOT": 0.0,
    "TLE_LINE1": "1 55751U 23028L   25315.09550875  .00006098  00000+0  51808-3 0  9990",
    "TLE_LINE2": "2 55751  69.9993 183.5641 0002546 268.3657  91.7211 14.98357543148274",
    "COMMENT": "Grouped by shell and plane from TLE"
  }
]